{
"type": "FeatureCollection",
"name": "34ovitrap",
"crs": { "type": "name", "properties": { "name": "urn:ogc:def:crs:OGC:1.3:CRS84" } },
"features": [
{ "type": "Feature", "properties": { "Name": "SO-01B", "descriptio": null, "timestamp": null, "begin": null, "end": null, "altitudeMo": null, "tessellate": -1, "extrude": 0, "visibility": -1, "drawOrder": null, "icon": null }, "geometry": { "type": "Point", "coordinates": [ -64.884418975147625, -24.237007072769249 ] } },
{ "type": "Feature", "properties": { "Name": "SO-02B", "descriptio": null, "timestamp": null, "begin": null, "end": null, "altitudeMo": null, "tessellate": -1, "extrude": 0, "visibility": -1, "drawOrder": null, "icon": null }, "geometry": { "type": "Point", "coordinates": [ -64.878065837272104, -24.23234594651802 ] } },
{ "type": "Feature", "properties": { "Name": "SO-03B", "descriptio": null, "timestamp": null, "begin": null, "end": null, "altitudeMo": null, "tessellate": -1, "extrude": 0, "visibility": -1, "drawOrder": null, "icon": null }, "geometry": { "type": "Point", "coordinates": [ -64.873194444444437, -24.227194444444439 ] } },
{ "type": "Feature", "properties": { "Name": "SO-04C", "descriptio": null, "timestamp": null, "begin": null, "end": null, "altitudeMo": null, "tessellate": -1, "extrude": 0, "visibility": -1, "drawOrder": null, "icon": null }, "geometry": { "type": "Point", "coordinates": [ -64.8694551, -24.22379444444444 ] } },
{ "type": "Feature", "properties": { "Name": "SO-05A", "descriptio": null, "timestamp": null, "begin": null, "end": null, "altitudeMo": null, "tessellate": -1, "extrude": 0, "visibility": -1, "drawOrder": null, "icon": null }, "geometry": { "type": "Point", "coordinates": [ -64.864197222222217, -24.222380555555549 ] } },
{ "type": "Feature", "properties": { "Name": "SO-06D", "descriptio": null, "timestamp": null, "begin": null, "end": null, "altitudeMo": null, "tessellate": -1, "extrude": 0, "visibility": -1, "drawOrder": null, "icon": null }, "geometry": { "type": "Point", "coordinates": [ -64.882833333333323, -24.241944444444449 ] } },
{ "type": "Feature", "properties": { "Name": "SO-07A", "descriptio": null, "timestamp": null, "begin": null, "end": null, "altitudeMo": null, "tessellate": -1, "extrude": 0, "visibility": -1, "drawOrder": null, "icon": null }, "geometry": { "type": "Point", "coordinates": [ -64.877927777777771, -24.236886111111119 ] } },
{ "type": "Feature", "properties": { "Name": "SO-08A", "descriptio": null, "timestamp": null, "begin": null, "end": null, "altitudeMo": null, "tessellate": -1, "extrude": 0, "visibility": -1, "drawOrder": null, "icon": null }, "geometry": { "type": "Point", "coordinates": [ -64.872776240357041, -24.231235079346462 ] } },
{ "type": "Feature", "properties": { "Name": "SO-09B", "descriptio": null, "timestamp": null, "begin": null, "end": null, "altitudeMo": null, "tessellate": -1, "extrude": 0, "visibility": -1, "drawOrder": null, "icon": null }, "geometry": { "type": "Point", "coordinates": [ -64.864709, -24.215722222222219 ] } },
{ "type": "Feature", "properties": { "Name": "SO-10B", "descriptio": null, "timestamp": null, "begin": null, "end": null, "altitudeMo": null, "tessellate": -1, "extrude": 0, "visibility": -1, "drawOrder": null, "icon": null }, "geometry": { "type": "Point", "coordinates": [ -64.88416, -24.247015 ] } },
{ "type": "Feature", "properties": { "Name": "SO-11B", "descriptio": null, "timestamp": null, "begin": null, "end": null, "altitudeMo": null, "tessellate": -1, "extrude": 0, "visibility": -1, "drawOrder": null, "icon": null }, "geometry": { "type": "Point", "coordinates": [ -64.880677, -24.243664 ] } },
{ "type": "Feature", "properties": { "Name": "SO-12A", "descriptio": null, "timestamp": null, "begin": null, "end": null, "altitudeMo": null, "tessellate": -1, "extrude": 0, "visibility": -1, "drawOrder": null, "icon": null }, "geometry": { "type": "Point", "coordinates": [ -64.872194444444432, -24.238833333333329 ] } },
{ "type": "Feature", "properties": { "Name": "SO-13B", "descriptio": null, "timestamp": null, "begin": null, "end": null, "altitudeMo": null, "tessellate": -1, "extrude": 0, "visibility": -1, "drawOrder": null, "icon": null }, "geometry": { "type": "Point", "coordinates": [ -64.868064, -24.232345 ] } },
{ "type": "Feature", "properties": { "Name": "SO-14A", "descriptio": null, "timestamp": null, "begin": null, "end": null, "altitudeMo": null, "tessellate": -1, "extrude": 0, "visibility": -1, "drawOrder": null, "icon": null }, "geometry": { "type": "Point", "coordinates": [ -64.86373441859449, -24.226513015942722 ] } },
{ "type": "Feature", "properties": { "Name": "SO-15A", "descriptio": null, "timestamp": null, "begin": null, "end": null, "altitudeMo": null, "tessellate": -1, "extrude": 0, "visibility": -1, "drawOrder": null, "icon": null }, "geometry": { "type": "Point", "coordinates": [ -64.860223110045126, -24.219406229482999 ] } },
{ "type": "Feature", "properties": { "Name": "SO-16B", "descriptio": null, "timestamp": null, "begin": null, "end": null, "altitudeMo": null, "tessellate": -1, "extrude": 0, "visibility": -1, "drawOrder": null, "icon": null }, "geometry": { "type": "Point", "coordinates": [ -64.857583333333324, -24.214444444444439 ] } },
{ "type": "Feature", "properties": { "Name": "SO-17A", "descriptio": null, "timestamp": null, "begin": null, "end": null, "altitudeMo": null, "tessellate": -1, "extrude": 0, "visibility": -1, "drawOrder": null, "icon": null }, "geometry": { "type": "Point", "coordinates": [ -64.872626733515119, -24.24300358911357 ] } },
{ "type": "Feature", "properties": { "Name": "SO-18A", "descriptio": null, "timestamp": null, "begin": null, "end": null, "altitudeMo": null, "tessellate": -1, "extrude": 0, "visibility": -1, "drawOrder": null, "icon": null }, "geometry": { "type": "Point", "coordinates": [ -64.867263888888886, -24.236583333333339 ] } },
{ "type": "Feature", "properties": { "Name": "SO-19B", "descriptio": null, "timestamp": null, "begin": null, "end": null, "altitudeMo": null, "tessellate": -1, "extrude": 0, "visibility": -1, "drawOrder": null, "icon": null }, "geometry": { "type": "Point", "coordinates": [ -64.855972222222221, -24.215777777777781 ] } },
{ "type": "Feature", "properties": { "Name": "SO-20D", "descriptio": null, "timestamp": null, "begin": null, "end": null, "altitudeMo": null, "tessellate": -1, "extrude": 0, "visibility": -1, "drawOrder": null, "icon": null }, "geometry": { "type": "Point", "coordinates": [ -64.864055555555552, -24.24058333333334 ] } },
{ "type": "Feature", "properties": { "Name": "SO-21B", "descriptio": null, "timestamp": null, "begin": null, "end": null, "altitudeMo": null, "tessellate": -1, "extrude": 0, "visibility": -1, "drawOrder": null, "icon": null }, "geometry": { "type": "Point", "coordinates": [ -64.859673068351398, -24.235141315064059 ] } },
{ "type": "Feature", "properties": { "Name": "SO-22C", "descriptio": null, "timestamp": null, "begin": null, "end": null, "altitudeMo": null, "tessellate": -1, "extrude": 0, "visibility": -1, "drawOrder": null, "icon": null }, "geometry": { "type": "Point", "coordinates": [ -64.85675, -24.22711111111111 ] } },
{ "type": "Feature", "properties": { "Name": "SO-23A", "descriptio": null, "timestamp": null, "begin": null, "end": null, "altitudeMo": null, "tessellate": -1, "extrude": 0, "visibility": -1, "drawOrder": null, "icon": null }, "geometry": { "type": "Point", "coordinates": [ -64.851970854231354, -24.2228 ] } },
{ "type": "Feature", "properties": { "Name": "SO-24B", "descriptio": null, "timestamp": null, "begin": null, "end": null, "altitudeMo": null, "tessellate": -1, "extrude": 0, "visibility": -1, "drawOrder": null, "icon": null }, "geometry": { "type": "Point", "coordinates": [ -64.861276269823421, -24.24230254988511 ] } },
{ "type": "Feature", "properties": { "Name": "SO-25B", "descriptio": null, "timestamp": null, "begin": null, "end": null, "altitudeMo": null, "tessellate": -1, "extrude": 0, "visibility": -1, "drawOrder": null, "icon": null }, "geometry": { "type": "Point", "coordinates": [ -64.857194444444445, -24.23533333333333 ] } },
{ "type": "Feature", "properties": { "Name": "SO-26B", "descriptio": null, "timestamp": null, "begin": null, "end": null, "altitudeMo": null, "tessellate": -1, "extrude": 0, "visibility": -1, "drawOrder": null, "icon": null }, "geometry": { "type": "Point", "coordinates": [ -64.858890050935202, -24.243674061407031 ] } },
{ "type": "Feature", "properties": { "Name": "SO-27A", "descriptio": null, "timestamp": null, "begin": null, "end": null, "altitudeMo": null, "tessellate": -1, "extrude": 0, "visibility": -1, "drawOrder": null, "icon": null }, "geometry": { "type": "Point", "coordinates": [ -64.855069400155017, -24.23736111111111 ] } },
{ "type": "Feature", "properties": { "Name": "SO-28A", "descriptio": null, "timestamp": null, "begin": null, "end": null, "altitudeMo": null, "tessellate": -1, "extrude": 0, "visibility": -1, "drawOrder": null, "icon": null }, "geometry": { "type": "Point", "coordinates": [ -64.85188888888888, -24.231416666666661 ] } },
{ "type": "Feature", "properties": { "Name": "SO-29B", "descriptio": null, "timestamp": null, "begin": null, "end": null, "altitudeMo": null, "tessellate": -1, "extrude": 0, "visibility": -1, "drawOrder": null, "icon": null }, "geometry": { "type": "Point", "coordinates": [ -64.853571181552411, -24.240228228557982 ] } },
{ "type": "Feature", "properties": { "Name": "SO-30B", "descriptio": null, "timestamp": null, "begin": null, "end": null, "altitudeMo": null, "tessellate": -1, "extrude": 0, "visibility": -1, "drawOrder": null, "icon": null }, "geometry": { "type": "Point", "coordinates": [ -64.854222222222219, -24.24261111111111 ] } },
{ "type": "Feature", "properties": { "Name": "SO-31A", "descriptio": null, "timestamp": null, "begin": null, "end": null, "altitudeMo": null, "tessellate": -1, "extrude": 0, "visibility": -1, "drawOrder": null, "icon": null }, "geometry": { "type": "Point", "coordinates": [ -64.849918689877867, -24.22622861088669 ] } },
{ "type": "Feature", "properties": { "Name": "SO-32C", "descriptio": null, "timestamp": null, "begin": null, "end": null, "altitudeMo": null, "tessellate": -1, "extrude": 0, "visibility": -1, "drawOrder": null, "icon": null }, "geometry": { "type": "Point", "coordinates": [ -64.881319444444443, -24.248763888888892 ] } },
{ "type": "Feature", "properties": { "Name": "SO-33C", "descriptio": null, "timestamp": null, "begin": null, "end": null, "altitudeMo": null, "tessellate": -1, "extrude": 0, "visibility": -1, "drawOrder": null, "icon": null }, "geometry": { "type": "Point", "coordinates": [ -64.887916666666669, -24.254111111111111 ] } },
{ "type": "Feature", "properties": { "Name": "SO-34C", "descriptio": null, "timestamp": null, "begin": null, "end": null, "altitudeMo": null, "tessellate": -1, "extrude": 0, "visibility": -1, "drawOrder": null, "icon": null }, "geometry": { "type": "Point", "coordinates": [ -64.87542797257025, -24.246706 ] } }
]
}
