{
"type": "FeatureCollection",
"name": "roi",
"crs": { "type": "name", "properties": { "name": "urn:ogc:def:crs:OGC:1.3:CRS84" } },
"features": [
{ "type": "Feature", "properties": { "Name": "San Pedro Total", "descriptio": null, "timestamp": null, "begin": null, "end": null, "altitudeMo": null, "tessellate": 1, "extrude": 0, "visibility": -1, "drawOrder": null, "icon": null }, "geometry": { "type": "Polygon", "coordinates": [ [ [ -64.890454859095598, -24.248871979093419 ], [ -64.890026899843306, -24.248527475800849 ], [ -64.88900574987872, -24.247885924974039 ], [ -64.888526473833778, -24.247635976466128 ], [ -64.888043916931025, -24.247376657964331 ], [ -64.887026901733989, -24.246981699988829 ], [ -64.885495288582902, -24.246243759345049 ], [ -64.884135898608378, -24.245442523158179 ], [ -64.883436628061787, -24.244822087238688 ], [ -64.883500694511909, -24.24470476677671 ], [ -64.882182622877536, -24.243798514035539 ], [ -64.880496809024322, -24.243185198683829 ], [ -64.881140142350972, -24.242499707353449 ], [ -64.87972323838801, -24.241630105072922 ], [ -64.878562568380218, -24.241183181792191 ], [ -64.877691804429688, -24.240756329607731 ], [ -64.876703950890118, -24.240425043184551 ], [ -64.876808326914258, -24.239868939762761 ], [ -64.877917713052113, -24.240205649908081 ], [ -64.87855670561396, -24.240723430483069 ], [ -64.879490150163477, -24.240604326762242 ], [ -64.882559628421745, -24.24291274204095 ], [ -64.885023729944365, -24.242428117255379 ], [ -64.888906350000568, -24.244724291956089 ], [ -64.889615938649783, -24.243964106312259 ], [ -64.888323285639586, -24.24235071321268 ], [ -64.886034886934596, -24.240961013704659 ], [ -64.886819792915219, -24.24032379902809 ], [ -64.887771090311873, -24.23998249960691 ], [ -64.888175930279886, -24.23947085992895 ], [ -64.880069946645833, -24.23128264673478 ], [ -64.876516968298091, -24.227820353717959 ], [ -64.876094935620799, -24.227382836187299 ], [ -64.873007898011679, -24.22480886056843 ], [ -64.871234233892963, -24.223410853239901 ], [ -64.870438647993524, -24.222499821671441 ], [ -64.867981044535981, -24.217938596304581 ], [ -64.867265008673243, -24.216491968260879 ], [ -64.866067671208484, -24.215507200468831 ], [ -64.86465799232208, -24.214958523187651 ], [ -64.862676230200236, -24.214244759186549 ], [ -64.861320927807071, -24.213781608990761 ], [ -64.859065997810461, -24.212820955889239 ], [ -64.857184738861903, -24.212249777910611 ], [ -64.856832526321242, -24.21271229685939 ], [ -64.856788689518538, -24.215271560257872 ], [ -64.855336510739392, -24.215234482643542 ], [ -64.857301747963291, -24.221770020071919 ], [ -64.848397561872289, -24.222857833516269 ], [ -64.854097814597537, -24.245655922793521 ], [ -64.855794697969429, -24.24630459236057 ], [ -64.857403219783293, -24.24672426076209 ], [ -64.867753360722105, -24.244406385277738 ], [ -64.868599453204936, -24.24571005651034 ], [ -64.872768133396193, -24.245867956147269 ], [ -64.885052215700739, -24.25187080535607 ], [ -64.890196024678716, -24.257188685406771 ], [ -64.892505700696205, -24.255471998779971 ], [ -64.890780049778385, -24.254610407584629 ], [ -64.892546909537856, -24.25188380599047 ], [ -64.889352687864758, -24.250169984393999 ], [ -64.890454859095598, -24.248871979093419 ] ] ] } }
]
}
